STARLINK-3801           
1 52356U 22045AB  26068.67789743  .00000793  00000+0  67932-4 0  9996
2 52356  53.2178 199.2038 0001211  93.6866 266.4265 15.08835973215787
LEMUR-2-MARHISYAM       
1 60536U 24149BW  26068.74036894  .00013075  00000+0  82973-3 0  9990
2 60536  97.6912 151.2662 0003578 107.3271 252.8349 15.09015520 85478
